{"type": "FeatureCollection", "features": [ {"type": "Feature", "properties": {"norad_id": 34077, "name": "IRIDIUM 33 DEB", "group": "iridium-33-debris", "lat": 3.9011548882614555, "lon": -130.1172809556957, "alt_km": 685.9455299579786, "timestamp": "2025-12-15T20:48:54.269604+00:00", "meta": {"OBJECT_NAME": "IRIDIUM 33 DEB", "OBJECT_ID": "1997-051CL", "EPOCH": "2025-12-14T16:44:01.605120", "MEAN_MOTION": 14.64865872, "ECCENTRICITY": 0.00099869, "INCLINATION": 86.3862, "RA_OF_ASC_NODE": 50.6449, "ARG_OF_PERICENTER": 33.0719, "MEAN_ANOMALY": 96.5251, "EPHEMERIS_TYPE": 0, "CLASSIFICATION_TYPE": "U", "NORAD_CAT_ID": 34077, "ELEMENT_SET_NO": 999, "REV_AT_EPOCH": 88361, "BSTAR": 0.00085055153, "MEAN_MOTION_DOT": 4.567e-05, "MEAN_MOTION_DDOT": 0}, "tle": {"line1": "1 34077U 97051CL  25348.69724080  .00004567  00000+0  85055-3 0  9998", "line2": "2 34077  86.3862  50.6449 0009986  33.0719  96.5251 14.64865872883614"}}, "geometry": {"type": "Point", "coordinates": [-130.1172809556957, 3.9011548882614555]}}, {"type": "Feature", "properties": {"norad_id": 34079, "name": "IRIDIUM 33 DEB", "group": "iridium-33-debris", "lat": 17.965052654345033, "lon": 8.41718195152813, "alt_km": 614.9373208114657, "timestamp": "2025-12-15T20:48:54.269615+00:00", "meta": {"OBJECT_NAME": "IRIDIUM 33 DEB", "OBJECT_ID": "1997-051CN", "EPOCH": "2025-12-14T19:40:01.524576", "MEAN_MOTION": 14.8359297, "ECCENTRICITY": 0.0005339, "INCLINATION": 86.378, "RA_OF_ASC_NODE": 7.7167, "ARG_OF_PERICENTER": 1.7178, "MEAN_ANOMALY": 183.6258, "EPHEMERIS_TYPE": 0, "CLASSIFICATION_TYPE": "U", "NORAD_CAT_ID": 34079, "ELEMENT_SET_NO": 999, "REV_AT_EPOCH": 89008, "BSTAR": 0.0013395573, "MEAN_MOTION_DOT": 0.00011073, "MEAN_MOTION_DDOT": 0}, "tle": {"line1": "1 34079U 97051CN  25348.81946209  .00011073  00000+0  13396-2 0  9991", "line2": "2 34079  86.3780   7.7167 0005339   1.7178 183.6258 14.83592970890085"}}, "geometry": {"type": "Point", "coordinates": [8.41718195152813, 17.965052654345033]}}, {"type": "Feature", "properties": {"norad_id": 34088, "name": "IRIDIUM 33 DEB", "group": "iridium-33-debris", "lat": -18.31294014278126, "lon": -149.51375455491336, "alt_km": 594.7970964432625, "timestamp": "2025-12-15T20:48:54.269625+00:00", "meta": {"OBJECT_NAME": "IRIDIUM 33 DEB", "OBJECT_ID": "1997-051CX", "EPOCH": "2025-12-14T15:29:06.397152", "MEAN_MOTION": 14.91497606, "ECCENTRICITY": 0.00059409, "INCLINATION": 86.3853, "RA_OF_ASC_NODE": 29.8488, "ARG_OF_PERICENTER": 170.2926, "MEAN_ANOMALY": 310.3391, "EPHEMERIS_TYPE": 0, "CLASSIFICATION_TYPE": "U", "NORAD_CAT_ID": 34088, "ELEMENT_SET_NO": 999, "REV_AT_EPOCH": 88770, "BSTAR": 0.001772792, "MEAN_MOTION_DOT": 0.00017796, "MEAN_MOTION_DDOT": 0}, "tle": {"line1": "1 34088U 97051CX  25348.64521293  .00017796  00000+0  17728-2 0  9995", "line2": "2 34088  86.3853  29.8488 0005940 170.2926 310.3391 14.91497606887709"}}, "geometry": {"type": "Point", "coordinates": [-149.51375455491336, -18.31294014278126]}}, {"type": "Feature", "properties": {"norad_id": 34091, "name": "IRIDIUM 33 DEB", "group": "iridium-33-debris", "lat": -82.27432897855354, "lon": 37.26016211838912, "alt_km": 606.8403311370193, "timestamp": "2025-12-15T20:48:54.269635+00:00", "meta": {"OBJECT_NAME": "IRIDIUM 33 DEB", "OBJECT_ID": "1997-051DA", "EPOCH": "2025-12-14T16:01:12.076896", "MEAN_MOTION": 14.82009741, "ECCENTRICITY": 0.00335461, "INCLINATION": 86.3414, "RA_OF_ASC_NODE": 65.9512, "ARG_OF_PERICENTER": 286.2337, "MEAN_ANOMALY": 73.5195, "EPHEMERIS_TYPE": 0, "CLASSIFICATION_TYPE": "U", "NORAD_CAT_ID": 34091, "ELEMENT_SET_NO": 999, "REV_AT_EPOCH": 87895, "BSTAR": 0.003530902, "MEAN_MOTION_DOT": 0.00028393, "MEAN_MOTION_DDOT": 0}, "tle": {"line1": "1 34091U 97051DA  25348.66750089  .00028393  00000+0  35309-2 0  9998", "line2": "2 34091  86.3414  65.9512 0033546 286.2337  73.5195 14.82009741878958"}}, "geometry": {"type": "Point", "coordinates": [37.26016211838912, -82.27432897855354]}}, {"type": "Feature", "properties": {"norad_id": 34097, "name": "IRIDIUM 33 DEB", "group": "iridium-33-debris", "lat": -5.313788070856298, "lon": -0.32586586586931177, "alt_km": 720.5578891309115, "timestamp": "2025-12-15T20:48:54.269646+00:00", "meta": {"OBJECT_NAME": "IRIDIUM 33 DEB", "OBJECT_ID": "1997-051DG", "EPOCH": "2025-12-14T13:02:17.769408", "MEAN_MOTION": 14.34795196, "ECCENTRICITY": 0.00823768, "INCLINATION": 86.2009, "RA_OF_ASC_NODE": 0.6123, "ARG_OF_PERICENTER": 356.317, "MEAN_ANOMALY": 3.7408, "EPHEMERIS_TYPE": 0, "CLASSIFICATION_TYPE": "U", "NORAD_CAT_ID": 34097, "ELEMENT_SET_NO": 999, "REV_AT_EPOCH": 87145, "BSTAR": 0.0013973376, "MEAN_MOTION_DOT": 4.135e-05, "MEAN_MOTION_DDOT": 0}, "tle": {"line1": "1 34097U 97051DG  25348.54326122  .00004135  00000+0  13973-2 0  9999", "line2": "2 34097  86.2009   0.6123 0082376 356.3170   3.7408 14.34795196871459"}}, "geometry": {"type": "Point", "coordinates": [-0.32586586586931177, -5.313788070856298]}}, {"type": "Feature", "properties": {"norad_id": 34145, "name": "IRIDIUM 33 DEB", "group": "iridium-33-debris", "lat": -12.273498794230411, "lon": -29.691435423340998, "alt_km": 759.2688452433758, "timestamp": "2025-12-15T20:48:54.269656+00:00", "meta": {"OBJECT_NAME": "IRIDIUM 33 DEB", "OBJECT_ID": "1997-051DY", "EPOCH": "2025-12-14T16:33:57.762432", "MEAN_MOTION": 14.42306134, "ECCENTRICITY": 0.00557583, "INCLINATION": 86.2115, "RA_OF_ASC_NODE": 331.6586, "ARG_OF_PERICENTER": 87.6422, "MEAN_ANOMALY": 273.116, "EPHEMERIS_TYPE": 0, "CLASSIFICATION_TYPE": "U", "NORAD_CAT_ID": 34145, "ELEMENT_SET_NO": 999, "REV_AT_EPOCH": 87666, "BSTAR": 0.0010627666, "MEAN_MOTION_DOT": 3.593e-05, "MEAN_MOTION_DDOT": 0}, "tle": {"line1": "1 34145U 97051DY  25348.69025188  .00003593  00000+0  10628-2 0  9998", "line2": "2 34145  86.2115 331.6586 0055758  87.6422 273.1160 14.42306134876664"}}, "geometry": {"type": "Point", "coordinates": [-29.691435423340998, -12.273498794230411]}}, {"type": "Feature", "properties": {"norad_id": 34146, "name": "IRIDIUM 33 DEB", "group": "iridium-33-debris", "lat": 61.66831324757125, "lon": -4.656704767653676, "alt_km": 738.3878896515807, "timestamp": "2025-12-15T20:48:54.269666+00:00", "meta": {"OBJECT_NAME": "IRIDIUM 33 DEB", "OBJECT_ID": "1997-051DZ", "EPOCH": "2025-12-14T23:06:53.759808", "MEAN_MOTION": 14.49067063, "ECCENTRICITY": 0.00257014, "INCLINATION": 86.2837, "RA_OF_ASC_NODE": 348.8187, "ARG_OF_PERICENTER": 213.7885, "MEAN_ANOMALY": 174.5753, "EPHEMERIS_TYPE": 0, "CLASSIFICATION_TYPE": "U", "NORAD_CAT_ID": 34146, "ELEMENT_SET_NO": 999, "REV_AT_EPOCH": 88139, "BSTAR": 0.00071723863, "MEAN_MOTION_DOT": 2.754e-05, "MEAN_MOTION_DDOT": 0}, "tle": {"line1": "1 34146U 97051DZ  25348.96312222  .00002754  00000+0  71724-3 0  9990", "line2": "2 34146  86.2837 348.8187 0025701 213.7885 174.5753 14.49067063881393"}}, "geometry": {"type": "Point", "coordinates": [-4.656704767653676, 61.66831324757125]}}, {"type": "Feature", "properties": {"norad_id": 34159, "name": "IRIDIUM 33 DEB", "group": "iridium-33-debris", "lat": 18.30952411525874, "lon": 48.1181324780281, "alt_km": 767.4845872764745, "timestamp": "2025-12-15T20:48:54.269677+00:00", "meta": {"OBJECT_NAME": "IRIDIUM 33 DEB", "OBJECT_ID": "1997-051EN", "EPOCH": "2025-12-14T21:21:27.192384", "MEAN_MOTION": 14.38499418, "ECCENTRICITY": 0.00260466, "INCLINATION": 86.3508, "RA_OF_ASC_NODE": 47.3247, "ARG_OF_PERICENTER": 280.2682, "MEAN_ANOMALY": 79.558, "EPHEMERIS_TYPE": 0, "CLASSIFICATION_TYPE": "U", "NORAD_CAT_ID": 34159, "ELEMENT_SET_NO": 999, "REV_AT_EPOCH": 87990, "BSTAR": 0.0004377178, "MEAN_MOTION_DOT": 1.361e-05, "MEAN_MOTION_DDOT": 0}, "tle": {"line1": "1 34159U 97051EN  25348.88989806  .00001361  00000+0  43772-3 0  9998", "line2": "2 34159  86.3508  47.3247 0026046 280.2682  79.5580 14.38499418879905"}}, "geometry": {"type": "Point", "coordinates": [48.1181324780281, 18.30952411525874]}}, {"type": "Feature", "properties": {"norad_id": 34350, "name": "IRIDIUM 33 DEB", "group": "iridium-33-debris", "lat": 55.32938971035422, "lon": 176.12229274208343, "alt_km": 719.2051989402144, "timestamp": "2025-12-15T20:48:54.269687+00:00", "meta": {"OBJECT_NAME": "IRIDIUM 33 DEB", "OBJECT_ID": "1997-051ES", "EPOCH": "2025-12-14T07:45:39.237120", "MEAN_MOTION": 14.45391202, "ECCENTRICITY": 0.00229581, "INCLINATION": 86.3275, "RA_OF_ASC_NODE": 2.12, "ARG_OF_PERICENTER": 130.2714, "MEAN_ANOMALY": 245.6158, "EPHEMERIS_TYPE": 0, "CLASSIFICATION_TYPE": "U", "NORAD_CAT_ID": 34350, "ELEMENT_SET_NO": 999, "REV_AT_EPOCH": 88316, "BSTAR": 0.00041566324, "MEAN_MOTION_DOT": 1.486e-05, "MEAN_MOTION_DDOT": 0}, "tle": {"line1": "1 34350U 97051ES  25348.32337080  .00001486  00000+0  41566-3 0  9998", "line2": "2 34350  86.3275   2.1200 0022958 130.2714 245.6158 14.45391202883165"}}, "geometry": {"type": "Point", "coordinates": [176.12229274208343, 55.32938971035422]}}, {"type": "Feature", "properties": {"norad_id": 34366, "name": "IRIDIUM 33 DEB", "group": "iridium-33-debris", "lat": -10.352354367765559, "lon": -131.38212032866562, "alt_km": 708.7927255027125, "timestamp": "2025-12-15T20:48:54.269697+00:00", "meta": {"OBJECT_NAME": "IRIDIUM 33 DEB", "OBJECT_ID": "1997-051FJ", "EPOCH": "2025-12-14T16:27:37.334592", "MEAN_MOTION": 14.54079263, "ECCENTRICITY": 0.00225948, "INCLINATION": 86.3699, "RA_OF_ASC_NODE": 48.4671, "ARG_OF_PERICENTER": 133.4897, "MEAN_ANOMALY": 356.0007, "EPHEMERIS_TYPE": 0, "CLASSIFICATION_TYPE": "U", "NORAD_CAT_ID": 34366, "ELEMENT_SET_NO": 999, "REV_AT_EPOCH": 88210, "BSTAR": 0.00084938669, "MEAN_MOTION_DOT": 3.618e-05, "MEAN_MOTION_DDOT": 0}, "tle": {"line1": "1 34366U 97051FJ  25348.68584878  .00003618  00000+0  84939-3 0  9993", "line2": "2 34366  86.3699  48.4671 0022594 133.4897 356.0007 14.54079263882103"}}, "geometry": {"type": "Point", "coordinates": [-131.38212032866562, -10.352354367765559]}}]}